[{"OBJECT_NAME":"SWARM B","OBJECT_ID":"2013-067A","EPOCH":"2026-03-09T22:20:48.706656","MEAN_MOTION":15.27862638,"ECCENTRICITY":0.00036996,"INCLINATION":87.749,"RA_OF_ASC_NODE":12.4162,"ARG_OF_PERICENTER":86.3179,"MEAN_ANOMALY":273.8493,"EPHEMERIS_TYPE":0,"CLASSIFICATION_TYPE":"U","NORAD_CAT_ID":39451,"ELEMENT_SET_NO":999,"REV_AT_EPOCH":66808,"BSTAR":0.00020534236,"MEAN_MOTION_DOT":5.616e-5,"MEAN_MOTION_DDOT":0},{"OBJECT_NAME":"STARLINK-31657","OBJECT_ID":"2024-071D","EPOCH":"2026-03-09T01:57:04.100544","MEAN_MOTION":15.2756621,"ECCENTRICITY":0.00014394,"INCLINATION":43.0031,"RA_OF_ASC_NODE":343.0916,"ARG_OF_PERICENTER":283.5557,"MEAN_ANOMALY":76.5134,"EPHEMERIS_TYPE":0,"CLASSIFICATION_TYPE":"U","NORAD_CAT_ID":59487,"ELEMENT_SET_NO":999,"REV_AT_EPOCH":10811,"BSTAR":-0.0001504653,"MEAN_MOTION_DOT":-4.398e-5,"MEAN_MOTION_DDOT":0}]
